{
  "type": "FeatureCollection",
  "features": [
    {
      "type": "Feature",
      "properties": {
        "norad_id": 66802,
        "name": "STARLINK-35604",
        "group": "last-30-days",
        "lat": 21.444141753531092,
        "lon": 45.86936105994642,
        "alt_km": 305.4055069022934,
        "timestamp": "2025-12-12T22:42:11.307348+00:00",
        "meta_object_name": "STARLINK-35604",
        "meta_object_id": "2025-278M",
        "meta_epoch": "2025-12-12T05:29:06.885888",
        "meta_mean_motion": 15.88706217,
        "meta_eccentricity": 0.00016948,
        "meta_inclination": 42.9982,
        "meta_ra_of_asc_node": 255.2421,
        "meta_arg_of_pericenter": 313.5855,
        "meta_mean_anomaly": 46.4878,
        "meta_ephemeris_type": 0,
        "meta_classification_type": "U",
        "meta_norad_cat_id": 66802,
        "meta_element_set_no": 999,
        "meta_rev_at_epoch": 175,
        "meta_bstar": -0.0014575015,
        "meta_mean_motion_dot": -0.00406314,
        "meta_mean_motion_ddot": 0,
        "tle_line1": "1 66802U 25278M   25346.22855192 -.00406314  00000+0 -14575-2 0  9993",
        "tle_line2": "2 66802  42.9982 255.2421 0001694 313.5855  46.4878 15.88706217  1754"
      },
      "geometry": {
        "type": "Point",
        "coordinates": [
          45.86936105994642,
          21.444141753531092
        ]
      }
    },
    {
      "type": "Feature",
      "properties": {
        "norad_id": 66803,
        "name": "STARLINK-35565",
        "group": "last-30-days",
        "lat": 18.463308486515405,
        "lon": 49.79132617532508,
        "alt_km": 305.57884398189526,
        "timestamp": "2025-12-12T22:42:11.307357+00:00",
        "meta_object_name": "STARLINK-35565",
        "meta_object_id": "2025-278N",
        "meta_epoch": "2025-12-12T05:27:57.664800",
        "meta_mean_motion": 15.88763983,
        "meta_eccentricity": 0.00016385,
        "meta_inclination": 42.9978,
        "meta_ra_of_asc_node": 255.2353,
        "meta_arg_of_pericenter": 304.3709,
        "meta_mean_anomaly": 55.701,
        "meta_ephemeris_type": 0,
        "meta_classification_type": "U",
        "meta_norad_cat_id": 66803,
        "meta_element_set_no": 999,
        "meta_rev_at_epoch": 175,
        "meta_bstar": -0.0014239095,
        "meta_mean_motion_dot": -0.00398459,
        "meta_mean_motion_ddot": 0,
        "tle_line1": "1 66803U 25278N   25346.22775075 -.00398459  00000+0 -14239-2 0  9992",
        "tle_line2": "2 66803  42.9978 255.2353 0001638 304.3709  55.7010 15.88763983  1752"
      },
      "geometry": {
        "type": "Point",
        "coordinates": [
          49.79132617532508,
          18.463308486515405
        ]
      }
    },
    {
      "type": "Feature",
      "properties": {
        "norad_id": 66804,
        "name": "STARLINK-36038",
        "group": "last-30-days",
        "lat": 16.799743665148114,
        "lon": 51.87718987865655,
        "alt_km": 305.91457790211007,
        "timestamp": "2025-12-12T22:42:11.307367+00:00",
        "meta_object_name": "STARLINK-36038",
        "meta_object_id": "2025-278P",
        "meta_epoch": "2025-12-12T05:27:18.631008",
        "meta_mean_motion": 15.88780699,
        "meta_eccentricity": 0.00018569,
        "meta_inclination": 42.9982,
        "meta_ra_of_asc_node": 255.2321,
        "meta_arg_of_pericenter": 299.042,
        "meta_mean_anomaly": 61.0268,
        "meta_ephemeris_type": 0,
        "meta_classification_type": "U",
        "meta_norad_cat_id": 66804,
        "meta_element_set_no": 999,
        "meta_rev_at_epoch": 175,
        "meta_bstar": -0.0014750056,
        "meta_mean_motion_dot": -0.00412474,
        "meta_mean_motion_ddot": 0,
        "tle_line1": "1 66804U 25278P   25346.22729897 -.00412474  00000+0 -14750-2 0  9996",
        "tle_line2": "2 66804  42.9982 255.2321 0001856 299.0420  61.0268 15.88780699  1753"
      },
      "geometry": {
        "type": "Point",
        "coordinates": [
          51.87718987865655,
          16.799743665148114
        ]
      }
    },
    {
      "type": "Feature",
      "properties": {
        "norad_id": 66805,
        "name": "STARLINK-36049",
        "group": "last-30-days",
        "lat": 13.849740126098485,
        "lon": 55.42776122208322,
        "alt_km": 306.26170714471937,
        "timestamp": "2025-12-12T22:42:11.307376+00:00",
        "meta_object_name": "STARLINK-36049",
        "meta_object_id": "2025-278Q",
        "meta_epoch": "2025-12-12T05:26:10.995360",
        "meta_mean_motion": 15.88816833,
        "meta_eccentricity": 0.00017426,
        "meta_inclination": 42.9974,
        "meta_ra_of_asc_node": 255.2249,
        "meta_arg_of_pericenter": 298.4406,
        "meta_mean_anomaly": 61.6293,
        "meta_ephemeris_type": 0,
        "meta_classification_type": "U",
        "meta_norad_cat_id": 66805,
        "meta_element_set_no": 999,
        "meta_rev_at_epoch": 175,
        "meta_bstar": -0.0015660456,
        "meta_mean_motion_dot": -0.00437471,
        "meta_mean_motion_ddot": 0,
        "tle_line1": "1 66805U 25278Q   25346.22651615 -.00437471  00000+0 -15660-2 0  9994",
        "tle_line2": "2 66805  42.9974 255.2249 0001742 298.4406  61.6293 15.88816833  1759"
      },
      "geometry": {
        "type": "Point",
        "coordinates": [
          55.42776122208322,
          13.849740126098485
        ]
      }
    },
    {
      "type": "Feature",
      "properties": {
        "norad_id": 66806,
        "name": "STARLINK-36069",
        "group": "last-30-days",
        "lat": 15.484392033951817,
        "lon": 53.482166532545996,
        "alt_km": 305.9104184934058,
        "timestamp": "2025-12-12T22:42:11.307388+00:00",
        "meta_object_name": "STARLINK-36069",
        "meta_object_id": "2025-278R",
        "meta_epoch": "2025-12-12T05:26:49.020000",
        "meta_mean_motion": 15.8880637,
        "meta_eccentricity": 0.00016959,
        "meta_inclination": 42.9981,
        "meta_ra_of_asc_node": 255.2297,
        "meta_arg_of_pericenter": 296.9461,
        "meta_mean_anomaly": 63.124,
        "meta_ephemeris_type": 0,
        "meta_classification_type": "U",
        "meta_norad_cat_id": 66806,
        "meta_element_set_no": 999,
        "meta_rev_at_epoch": 175,
        "meta_bstar": -0.0014748642,
        "meta_mean_motion_dot": -0.00412927,
        "meta_mean_motion_ddot": 0,
        "tle_line1": "1 66806U 25278R   25346.22695625 -.00412927  00000+0 -14749-2 0  9990",
        "tle_line2": "2 66806  42.9981 255.2297 0001695 296.9461  63.1240 15.88806370  1756"
      },
      "geometry": {
        "type": "Point",
        "coordinates": [
          53.482166532545996,
          15.484392033951817
        ]
      }
    },
    {
      "type": "Feature",
      "properties": {
        "norad_id": 66807,
        "name": "STARLINK-36000",
        "group": "last-30-days",
        "lat": 10.88512230648378,
        "lon": 58.84961217208252,
        "alt_km": 306.5952400683045,
        "timestamp": "2025-12-12T22:42:11.307402+00:00",
        "meta_object_name": "STARLINK-36000",
        "meta_object_id": "2025-278S",
        "meta_epoch": "2025-12-12T05:25:02.181216",
        "meta_mean_motion": 15.88844569,
        "meta_eccentricity": 0.00023608,
        "meta_inclination": 42.9977,
        "meta_ra_of_asc_node": 255.2186,
        "meta_arg_of_pericenter": 273.647,
        "meta_mean_anomaly": 86.4134,
        "meta_ephemeris_type": 0,
        "meta_classification_type": "U",
        "meta_norad_cat_id": 66807,
        "meta_element_set_no": 999,
        "meta_rev_at_epoch": 175,
        "meta_bstar": -0.0018147519,
        "meta_mean_motion_dot": -0.0050397,
        "meta_mean_motion_ddot": 0,
        "tle_line1": "1 66807U 25278S   25346.22571969 -.00503970  00000+0 -18148-2 0  9991",
        "tle_line2": "2 66807  42.9977 255.2186 0002360 273.6470  86.4134 15.88844569  1753"
      },
      "geometry": {
        "type": "Point",
        "coordinates": [
          58.84961217208252,
          10.88512230648378
        ]
      }
    },
    {
      "type": "Feature",
      "properties": {
        "norad_id": 66808,
        "name": "STARLINK-36071",
        "group": "last-30-days",
        "lat": 9.302526603934325,
        "lon": 60.62876814201372,
        "alt_km": 306.50732112044716,
        "timestamp": "2025-12-12T22:42:11.307411+00:00",
        "meta_object_name": "STARLINK-36071",
        "meta_object_id": "2025-278T",
        "meta_epoch": "2025-12-12T05:24:29.270592",
        "meta_mean_motion": 15.888928,
        "meta_eccentricity": 0.00022534,
        "meta_inclination": 42.9973,
        "meta_ra_of_asc_node": 255.2153,
        "meta_arg_of_pericenter": 274.5533,
        "meta_mean_anomaly": 85.5084,
        "meta_ephemeris_type": 0,
        "meta_classification_type": "U",
        "meta_norad_cat_id": 66808,
        "meta_element_set_no": 999,
        "meta_rev_at_epoch": 175,
        "meta_bstar": -0.0017067611,
        "meta_mean_motion_dot": -0.00476588,
        "meta_mean_motion_ddot": 0,
        "tle_line1": "1 66808U 25278T   25346.22533878 -.00476588  00000+0 -17068-2 0  9993",
        "tle_line2": "2 66808  42.9973 255.2153 0002253 274.5533  85.5084 15.88892800  1750"
      },
      "geometry": {
        "type": "Point",
        "coordinates": [
          60.62876814201372,
          9.302526603934325
        ]
      }
    }
  ]
}